FENGYUN 1C DEB          
1 30297U 99025ZJ  17345.17669684  .00000996  00000-0  33408-3 0  9998
2 30297  98.7770  55.4354 0527163 256.7527 155.6889 13.81921402545226
